CTC2_L_00464001-01
1 44219U 24692OV  26037.47796296  .00000000  00000+0  00000-0 0  9990
2 44219  41.5000   0.0000 0000000   0.0000   0.0000 15.17631817    13
CTC2_L_00464002-01
1 44220U 25278LK  26037.47796296  .00000000  00000+0  00000-0 0  9993
2 44220  41.5000  12.0000 0000000   0.0000  48.0000 15.17631817    10
CTC2_L_00464003-01
1 44221U 22759NN  26037.47796296  .00000000  00000+0  00000-0 0  9995
2 44221  41.5000  24.0000 0000000   0.0000  96.0000 15.17631817    17
CTC2_L_00464004-01
1 44222U 22667KE  26037.47796296  .00000000  00000+0  00000-0 0  9994
2 44222  41.5000  36.0000 0000000   0.0000 144.0000 15.17631817    15
CTC2_L_00464005-01
1 44223U 22445BV  26037.47796296  .00000000  00000+0  00000-0 0  9999
2 44223  41.5000  48.0000 0000000   0.0000 192.0000 15.17631817    12
CTC2_L_00464006-01
1 44224U 24852GM  26037.47796296  .00000000  00000+0  00000-0 0  9994
2 44224  41.5000  60.0000 0000000   0.0000 240.0000 15.17631817    11
CTC2_L_00464007-01
1 44225U 26908LU  26037.47796296  .00000000  00000+0  00000-0 0  9999
2 44225  41.5000  72.0000 0000000   0.0000 288.0000 15.17631817    17
CTC2_L_00464008-01
1 44226U 23447KB  26037.47796296  .00000000  00000+0  00000-0 0  9995
2 44226  41.5000  84.0000 0000000   0.0000 336.0000 15.17631817    15
CTC2_L_00464009-01
1 44227U 23406GV  26037.47796296  .00000000  00000+0  00000-0 0  9991
2 44227  41.5000  96.0000 0000000   0.0000  24.0000 15.17631817    13
CTC2_L_00464010-01
1 44228U 24865WA  26037.47796296  .00000000  00000+0  00000-0 0  9992
2 44228  41.5000 108.0000 0000000   0.0000  72.0000 15.17631817    11
CTC2_L_00464011-01
1 44229U 26530ER  26037.47796296  .00000000  00000+0  00000-0 0  9994
2 44229  41.5000 120.0000 0000000   0.0000 120.0000 15.17631817    10
CTC2_L_00464012-01
1 44230U 23659YL  26037.47796296  .00000000  00000+0  00000-0 0  9995
2 44230  41.5000 132.0000 0000000   0.0000 168.0000 15.17631817    17
CTC2_L_00464013-01
1 44231U 25322UG  26037.47796296  .00000000  00000+0  00000-0 0  9995
2 44231  41.5000 144.0000 0000000   0.0000 216.0000 15.17631817    15
CTC2_L_00464014-01
1 44232U 23536WL  26037.47796296  .00000000  00000+0  00000-0 0  9991
2 44232  41.5000 156.0000 0000000   0.0000 264.0000 15.17631817    12
CTC2_L_00464015-01
1 44233U 24845SE  26037.47796296  .00000000  00000+0  00000-0 0  9996
2 44233  41.5000 168.0000 0000000   0.0000 312.0000 15.17631817    10
CTC2_L_00464016-01
1 44234U 22897BA  26037.47796296  .00000000  00000+0  00000-0 0  9992
2 44234  41.5000 180.0000 0000000   0.0000   0.0000 15.17631817    19
CTC2_L_00464017-01
1 44235U 25730A   26037.47796296  .00000000  00000+0  00000-0 0  9992
2 44235  41.5000 192.0000 0000000   0.0000  48.0000 15.17631817    15
CTC2_L_00464018-01
1 44236U 25405YT  26037.47796296  .00000000  00000+0  00000-0 0  9992
2 44236  41.5000 204.0000 0000000   0.0000  96.0000 15.17631817    13
CTC2_L_00464019-01
1 44237U 26501XU  26037.47796296  .00000000  00000+0  00000-0 0  9991
2 44237  41.5000 216.0000 0000000   0.0000 144.0000 15.17631817    11
CTC2_L_00464020-01
1 44238U 24854JE  26037.47796296  .00000000  00000+0  00000-0 0  9991
2 44238  41.5000 228.0000 0000000   0.0000 192.0000 15.17631817    18
CTC2_L_00464021-01
1 44239U 24241GJ  26037.47796296  .00000000  00000+0  00000-0 0  9992
2 44239  41.5000 240.0000 0000000   0.0000 240.0000 15.17631817    17
CTC2_L_00464022-01
1 44240U 23981WS  26037.47796296  .00000000  00000+0  00000-0 0  9994
2 44240  41.5000 252.0000 0000000   0.0000 288.0000 15.17631817    14
CTC2_L_00464023-01
1 44241U 22756TX  26037.47796296  .00000000  00000+0  00000-0 0  9994
2 44241  41.5000 264.0000 0000000   0.0000 336.0000 15.17631817    12
CTC2_L_00464024-01
1 44242U 24590ZJ  26037.47796296  .00000000  00000+0  00000-0 0  9993
2 44242  41.5000 276.0000 0000000   0.0000  24.0000 15.17631817    10
CTC2_L_00464025-01
1 44243U 23464HJ  26037.47796296  .00000000  00000+0  00000-0 0  9993
2 44243  41.5000 288.0000 0000000   0.0000  72.0000 15.17631817    17
CTC2_L_00464026-01
1 44244U 23292DI  26037.47796296  .00000000  00000+0  00000-0 0  9993
2 44244  41.5000 300.0000 0000000   0.0000 120.0000 15.17631817    17
CTC2_L_00464027-01
1 44245U 25663VB  26037.47796296  .00000000  00000+0  00000-0 0  9998
2 44245  41.5000 312.0000 0000000   0.0000 168.0000 15.17631817    13
CTC2_L_00464028-01
1 44246U 22415WJ  26037.47796296  .00000000  00000+0  00000-0 0  9991
2 44246  41.5000 324.0000 0000000   0.0000 216.0000 15.17631817    11
CTC2_L_00464029-01
1 44247U 24274WB  26037.47796296  .00000000  00000+0  00000-0 0  9997
2 44247  41.5000 336.0000 0000000   0.0000 264.0000 15.17631817    18
CTC2_L_00464030-01
1 44248U 26242U   26037.47796296  .00000000  00000+0  00000-0 0  9995
2 44248  41.5000 348.0000 0000000   0.0000 312.0000 15.17631817    16
